ONEWEB-0176             
1 48210U 21031A   26166.27604755  .00000047  00000+0  91289-4 0  9992
2 48210  87.8964 290.0800 0001871 103.6151 256.5187 13.14502924248067
ONEWEB-0184             
1 48211U 21031B   26166.24908678  .00000230  00000+0  58583-3 0  9994
2 48211  87.8968 290.0861 0001472 124.7550 235.3719 13.14502792248039
ONEWEB-0179             
1 48212U 21031C   26166.26987261  .00000210  00000+0  63851-4 0  9995
2 48212  87.8988 287.4340 0218676 263.5270  94.0984 14.25521848248772
ONEWEB-0180             
1 48213U 21031D   26166.10002640  .00000212  00000+0  53607-3 0  9997
2 48213  87.8966 290.1120 0002165 112.2863 247.8497 13.14502767247949
ONEWEB-0218             
1 48214U 21031E   26166.27446145  .00000055  00000+0  11264-3 0  9996
2 48214  87.8972 290.0763 0001762 128.5028 231.6260 13.14502200248126
ONEWEB-0209             
1 48215U 21031F   26166.26335102  .00000206  00000+0  52073-3 0  9997
2 48215  87.8961 290.0958 0002132 104.2892 255.8474 13.14501605248126
ONEWEB-0198             
1 48216U 21031G   26166.24764476  .00000211  00000+0  53571-3 0  9996
2 48216  87.8952 290.0984 0002039 113.4889 246.6455 13.14502722248230
ONEWEB-0189             
1 48217U 21031H   26165.87960271  .00000181  00000+0  45396-3 0  9998
2 48217  87.8967 290.1576 0001951 111.1020 249.0318 13.14503262247929
ONEWEB-0196             
1 48218U 21031J   26166.31410744  .00000081  00000+0  18532-3 0  9995
2 48218  87.8962 290.0801 0001985 105.0447 255.0903 13.14503167247984
ONEWEB-0183             
1 48219U 21031K   26166.28873215 -.00000112  00000+0 -33707-3 0  9996
2 48219  87.8962 290.0828 0002081  96.6959 263.4408 13.14503398248075
ONEWEB-0185             
1 48220U 21031L   26166.31489196  .00000094  00000+0  21825-3 0  9998
2 48220  87.8969 290.0715 0002313 101.8087 258.3303 13.14502879248001
ONEWEB-0187             
1 48221U 21031M   26166.29494015 -.00000177  00000+0 -51185-3 0  9998
2 48221  87.8957 290.0911 0002132 104.7121 255.4245 13.14502839248017
ONEWEB-0192             
1 48222U 21031N   26166.26493734  .00000224  00000+0  57034-3 0  9993
2 48222  87.8960 290.0874 0001867 103.5174 256.6164 13.14501305247928
ONEWEB-0219             
1 48223U 21031P   26166.32042843  .00000193  00000+0  48583-3 0  9996
2 48223  87.8961 290.0684 0002160 104.0028 256.1342 13.14504727248138
ONEWEB-0202             
1 48224U 21031Q   26166.30142242 -.00000158  00000+0 -46193-3 0  9997
2 48224  87.8964 290.0847 0001807 121.9689 238.1617 13.14502931248119
ONEWEB-0204             
1 48225U 21031R   26166.25940183  .00000248  00000+0  63370-3 0  9996
2 48225  87.8964 290.0874 0002169  95.2244 264.9134 13.14502676248007
