[{"OBJECT_NAME":"ONEWEB-0176","OBJECT_ID":"2021-031A","EPOCH":"2026-06-15T06:37:30.508320","MEAN_MOTION":13.14502924,"ECCENTRICITY":0.0001871,"INCLINATION":87.8964,"RA_OF_ASC_NODE":290.08,"ARG_OF_PERICENTER":103.6151,"MEAN_ANOMALY":256.5187,"EPHEMERIS_TYPE":0,"CLASSIFICATION_TYPE":"U","NORAD_CAT_ID":48210,"ELEMENT_SET_NO":999,"REV_AT_EPOCH":24806,"BSTAR":9.1289e-05,"MEAN_MOTION_DOT":4.7e-07,"MEAN_MOTION_DDOT":0.0},{"OBJECT_NAME":"ONEWEB-0184","OBJECT_ID":"2021-031B","EPOCH":"2026-06-15T05:58:41.097792","MEAN_MOTION":13.14502792,"ECCENTRICITY":0.0001472,"INCLINATION":87.8968,"RA_OF_ASC_NODE":290.0861,"ARG_OF_PERICENTER":124.755,"MEAN_ANOMALY":235.3719,"EPHEMERIS_TYPE":0,"CLASSIFICATION_TYPE":"U","NORAD_CAT_ID":48211,"ELEMENT_SET_NO":999,"REV_AT_EPOCH":24803,"BSTAR":0.00058583,"MEAN_MOTION_DOT":2.3e-06,"MEAN_MOTION_DDOT":0.0},{"OBJECT_NAME":"ONEWEB-0179","OBJECT_ID":"2021-031C","EPOCH":"2026-06-15T06:28:36.993504","MEAN_MOTION":14.25521848,"ECCENTRICITY":0.0218676,"INCLINATION":87.8988,"RA_OF_ASC_NODE":287.434,"ARG_OF_PERICENTER":263.527,"MEAN_ANOMALY":94.0984,"EPHEMERIS_TYPE":0,"CLASSIFICATION_TYPE":"U","NORAD_CAT_ID":48212,"ELEMENT_SET_NO":999,"REV_AT_EPOCH":24877,"BSTAR":6.385100000000001e-05,"MEAN_MOTION_DOT":2.1e-06,"MEAN_MOTION_DDOT":0.0},{"OBJECT_NAME":"ONEWEB-0180","OBJECT_ID":"2021-031D","EPOCH":"2026-06-15T02:24:02.280960","MEAN_MOTION":13.14502767,"ECCENTRICITY":0.0002165,"INCLINATION":87.8966,"RA_OF_ASC_NODE":290.112,"ARG_OF_PERICENTER":112.2863,"MEAN_ANOMALY":247.8497,"EPHEMERIS_TYPE":0,"CLASSIFICATION_TYPE":"U","NORAD_CAT_ID":48213,"ELEMENT_SET_NO":999,"REV_AT_EPOCH":24794,"BSTAR":0.00053607,"MEAN_MOTION_DOT":2.12e-06,"MEAN_MOTION_DDOT":0.0},{"OBJECT_NAME":"ONEWEB-0218","OBJECT_ID":"2021-031E","EPOCH":"2026-06-15T06:35:13.469280","MEAN_MOTION":13.145022,"ECCENTRICITY":0.0001762,"INCLINATION":87.8972,"RA_OF_ASC_NODE":290.0763,"ARG_OF_PERICENTER":128.5028,"MEAN_ANOMALY":231.626,"EPHEMERIS_TYPE":0,"CLASSIFICATION_TYPE":"U","NORAD_CAT_ID":48214,"ELEMENT_SET_NO":999,"REV_AT_EPOCH":24812,"BSTAR":0.00011264,"MEAN_MOTION_DOT":5.5e-07,"MEAN_MOTION_DDOT":0.0},{"OBJECT_NAME":"ONEWEB-0209","OBJECT_ID":"2021-031F","EPOCH":"2026-06-15T06:19:13.528128","MEAN_MOTION":13.14501605,"ECCENTRICITY":0.0002132,"INCLINATION":87.8961,"RA_OF_ASC_NODE":290.0958,"ARG_OF_PERICENTER":104.2892,"MEAN_ANOMALY":255.8474,"EPHEMERIS_TYPE":0,"CLASSIFICATION_TYPE":"U","NORAD_CAT_ID":48215,"ELEMENT_SET_NO":999,"REV_AT_EPOCH":24812,"BSTAR":0.0005207300000000001,"MEAN_MOTION_DOT":2.06e-06,"MEAN_MOTION_DDOT":0.0},{"OBJECT_NAME":"ONEWEB-0198","OBJECT_ID":"2021-031G","EPOCH":"2026-06-15T05:56:36.507264","MEAN_MOTION":13.14502722,"ECCENTRICITY":0.0002039,"INCLINATION":87.8952,"RA_OF_ASC_NODE":290.0984,"ARG_OF_PERICENTER":113.4889,"MEAN_ANOMALY":246.6455,"EPHEMERIS_TYPE":0,"CLASSIFICATION_TYPE":"U","NORAD_CAT_ID":48216,"ELEMENT_SET_NO":999,"REV_AT_EPOCH":24823,"BSTAR":0.00053571,"MEAN_MOTION_DOT":2.11e-06,"MEAN_MOTION_DDOT":0.0},{"OBJECT_NAME":"ONEWEB-0189","OBJECT_ID":"2021-031H","EPOCH":"2026-06-14T21:06:37.674144","MEAN_MOTION":13.14503262,"ECCENTRICITY":0.0001951,"INCLINATION":87.8967,"RA_OF_ASC_NODE":290.1576,"ARG_OF_PERICENTER":111.102,"MEAN_ANOMALY":249.0318,"EPHEMERIS_TYPE":0,"CLASSIFICATION_TYPE":"U","NORAD_CAT_ID":48217,"ELEMENT_SET_NO":999,"REV_AT_EPOCH":24792,"BSTAR":0.00045396,"MEAN_MOTION_DOT":1.81e-06,"MEAN_MOTION_DDOT":0.0},{"OBJECT_NAME":"ONEWEB-0196","OBJECT_ID":"2021-031J","EPOCH":"2026-06-15T07:32:18.882816","MEAN_MOTION":13.14503167,"ECCENTRICITY":0.0001985,"INCLINATION":87.8962,"RA_OF_ASC_NODE":290.0801,"ARG_OF_PERICENTER":105.0447,"MEAN_ANOMALY":255.0903,"EPHEMERIS_TYPE":0,"CLASSIFICATION_TYPE":"U","NORAD_CAT_ID":48218,"ELEMENT_SET_NO":999,"REV_AT_EPOCH":24798,"BSTAR":0.00018532000000000002,"MEAN_MOTION_DOT":8.1e-07,"MEAN_MOTION_DDOT":0.0},{"OBJECT_NAME":"ONEWEB-0183","OBJECT_ID":"2021-031K","EPOCH":"2026-06-15T06:55:46.457760","MEAN_MOTION":13.14503398,"ECCENTRICITY":0.0002081,"INCLINATION":87.8962,"RA_OF_ASC_NODE":290.0828,"ARG_OF_PERICENTER":96.6959,"MEAN_ANOMALY":263.4408,"EPHEMERIS_TYPE":0,"CLASSIFICATION_TYPE":"U","NORAD_CAT_ID":48219,"ELEMENT_SET_NO":999,"REV_AT_EPOCH":24807,"BSTAR":-0.00033706999999999997,"MEAN_MOTION_DOT":-1.12e-06,"MEAN_MOTION_DDOT":0.0},{"OBJECT_NAME":"ONEWEB-0185","OBJECT_ID":"2021-031L","EPOCH":"2026-06-15T07:33:26.665344","MEAN_MOTION":13.14502879,"ECCENTRICITY":0.0002313,"INCLINATION":87.8969,"RA_OF_ASC_NODE":290.0715,"ARG_OF_PERICENTER":101.8087,"MEAN_ANOMALY":258.3303,"EPHEMERIS_TYPE":0,"CLASSIFICATION_TYPE":"U","NORAD_CAT_ID":48220,"ELEMENT_SET_NO":999,"REV_AT_EPOCH":24800,"BSTAR":0.00021825,"MEAN_MOTION_DOT":9.4e-07,"MEAN_MOTION_DDOT":0.0},{"OBJECT_NAME":"ONEWEB-0187","OBJECT_ID":"2021-031M","EPOCH":"2026-06-15T07:04:42.828960","MEAN_MOTION":13.14502839,"ECCENTRICITY":0.0002132,"INCLINATION":87.8957,"RA_OF_ASC_NODE":290.0911,"ARG_OF_PERICENTER":104.7121,"MEAN_ANOMALY":255.4245,"EPHEMERIS_TYPE":0,"CLASSIFICATION_TYPE":"U","NORAD_CAT_ID":48221,"ELEMENT_SET_NO":999,"REV_AT_EPOCH":24801,"BSTAR":-0.00051185,"MEAN_MOTION_DOT":-1.77e-06,"MEAN_MOTION_DDOT":0.0},{"OBJECT_NAME":"ONEWEB-0192","OBJECT_ID":"2021-031N","EPOCH":"2026-06-15T06:21:30.586176","MEAN_MOTION":13.14501305,"ECCENTRICITY":0.0001867,"INCLINATION":87.896,"RA_OF_ASC_NODE":290.0874,"ARG_OF_PERICENTER":103.5174,"MEAN_ANOMALY":256.6164,"EPHEMERIS_TYPE":0,"CLASSIFICATION_TYPE":"U","NORAD_CAT_ID":48222,"ELEMENT_SET_NO":999,"REV_AT_EPOCH":24792,"BSTAR":0.00057034,"MEAN_MOTION_DOT":2.24e-06,"MEAN_MOTION_DDOT":0.0},{"OBJECT_NAME":"ONEWEB-0219","OBJECT_ID":"2021-031P","EPOCH":"2026-06-15T07:41:25.016352","MEAN_MOTION":13.14504727,"ECCENTRICITY":0.000216,"INCLINATION":87.8961,"RA_OF_ASC_NODE":290.0684,"ARG_OF_PERICENTER":104.0028,"MEAN_ANOMALY":256.1342,"EPHEMERIS_TYPE":0,"CLASSIFICATION_TYPE":"U","NORAD_CAT_ID":48223,"ELEMENT_SET_NO":999,"REV_AT_EPOCH":24813,"BSTAR":0.00048583,"MEAN_MOTION_DOT":1.93e-06,"MEAN_MOTION_DDOT":0.0},{"OBJECT_NAME":"ONEWEB-0202","OBJECT_ID":"2021-031Q","EPOCH":"2026-06-15T07:14:02.897088","MEAN_MOTION":13.14502931,"ECCENTRICITY":0.0001807,"INCLINATION":87.8964,"RA_OF_ASC_NODE":290.0847,"ARG_OF_PERICENTER":121.9689,"MEAN_ANOMALY":238.1617,"EPHEMERIS_TYPE":0,"CLASSIFICATION_TYPE":"U","NORAD_CAT_ID":48224,"ELEMENT_SET_NO":999,"REV_AT_EPOCH":24811,"BSTAR":-0.00046193,"MEAN_MOTION_DOT":-1.58e-06,"MEAN_MOTION_DDOT":0.0},{"OBJECT_NAME":"ONEWEB-0204","OBJECT_ID":"2021-031R","EPOCH":"2026-06-15T06:13:32.318112","MEAN_MOTION":13.14502676,"ECCENTRICITY":0.0002169,"INCLINATION":87.8964,"RA_OF_ASC_NODE":290.0874,"ARG_OF_PERICENTER":95.2244,"MEAN_ANOMALY":264.9134,"EPHEMERIS_TYPE":0,"CLASSIFICATION_TYPE":"U","NORAD_CAT_ID":48225,"ELEMENT_SET_NO":999,"REV_AT_EPOCH":24800,"BSTAR":0.0006337000000000001,"MEAN_MOTION_DOT":2.48e-06,"MEAN_MOTION_DDOT":0.0}]